{"fetched_at":"2026-03-28T16:33:49Z","count":6709,"tles":[{"name":"TIANHUI 2-01A","line1":"1 44207U 19024A   26086.55154431  .00002035  00000+0  10729-3 0  9994","line2":"2 44207  97.4821  91.5692 0001241  86.4292 273.7083 15.16705907 89762","category":"Other"}]}